#dP2023  1  4  0  0  0.00000000      96 __u+U ITR00 FIT  IAC
## 2243 259200.00000000   900.00000000 59948 0.0000000000000
+  117   C06C07C08C09C10C11C12C13C14C16C19C20C21C22C23C24C25
+        C26C27C28C29C30C32C33C34C36C37C39C40C41C42C43C44C45
+        C46E01E02E03E04E05E07E08E09E10E11E12E13E14E15E18E19
+        E21E24E25E26E27E30E31E33E34E36G01G02G03G04G05G06G07
+        G08G09G10G11G12G13G14G15G16G17G18G19G20G21G22G23G24
+        G25G26G27G29G30G31G32J02J03J04R01R02R03R04R05R07R08
+        R09R11R12R13R14R15R16R17R18R19R20R21R22R24R25  0  0
++         9  8  9  9  8  7  8  7  8  9  7  7  8  7  6  6  6
++         7  8  7  6  7  7  7  6  6  7  9  7  7  9  7  7  6
++         8  7  7  7  7  7  7  6  7  6  6  4  5  6  6  7  7
++         6  5  7  6  6  6  6  7  7  6  6  6  6  6  6  6  5
++         6  6  6  6  7  6  7  6  7  5  6  6  7  6  6  6  6
++         6  7  6  6  5  6  6  8  0  6  6  6  7  7  7  6  7
++         9  6  6  7  5  6  8  6  5  6  7  5  7  6  7  0  0
%c M  cc GPS ccc cccc cccc cccc cccc ccccc ccccc ccccc ccccc
%c cc cc ccc ccc cccc cccc cccc cccc ccccc ccccc ccccc ccccc
%f  0.0000000  0.000000000  0.00000000000  0.000000000000000
%f  0.0000000  0.000000000  0.00000000000  0.000000000000000
%i    0    0    0    0      0      0      0      0         0
%i    0    0    0    0      0      0      0      0         0
/* INFORMATION & ANALYSIS CENTER (IAC)      ULTRA-RAPID DATA
/* S/V CLOCKS ARE ALIGNED TO GNSS TIME                      
/* G:C1WC2W R:C1PC2P E:C1XC5X C:C2IC6I J:C1CC2S             
/* PCV:IGS20_2239 OL/AL:FES2004  NONE     YN ORB:CoN CLK:CoN
*  2023 01 04 12 30  0.00000000
PC06  -1281.141996  34891.872618 -23434.034910    208.216500
PC07 -10893.134876  26729.736884  30740.074272     64.288421
PC08 -16137.345066  37757.127483  -9991.461073    526.662206
PC09   4312.337453  38106.419642 -16516.304923    123.906745
PC10  -4125.961936  27313.990047  32093.784473     38.783447
PC11  11183.856948  24601.741619   7079.530421   -197.128555
PC12  -3455.882659  18666.324131  20501.701881    380.086643
PC13 -11323.943832  38048.015473 -14446.282657    175.051179
PC14   8013.409129  14570.156527 -22402.634175    333.353028
PC16  -3139.157000  33024.966613 -25686.665426     88.786841
PC19 -17912.168588 -10729.231177  18530.935157   -898.856109
PC20   1288.726103 -15875.496653  22926.207838    780.573087
PC21 -21184.176913  11788.945730 -13793.555596   -919.577402
PC22 -27701.873841    840.232511   3175.813186   -703.631046
PC23  17744.887257  -1854.251331  21450.923776   -870.900105
PC24  -6592.741727  26348.015739   6461.960757   -585.220547
PC25   9194.199384  16447.598180  20578.248777     50.136046
PC26 -15967.974467  20923.473070  -9347.844278    -59.528717
PC27  10767.388491 -12094.930816 -22743.319876     76.483689
PC28  19949.511690   5622.340298 -18678.613748     55.033836
PC29 -18454.449274 -20760.792295   2698.506167     62.882676
PC30  -5007.423272 -23204.151661 -14692.127524      1.262774
PC32  21160.260843 -11941.795976  13742.918692   -660.623252
PC33  17912.899689  10672.586013 -18548.550671   -884.615332
PC34   5981.929879  23522.104403  13744.947177     76.167816
PC36  -8364.022176 -17192.420328 -20308.045797   -718.677535
PC37  16905.186246 -19523.528418  10541.248065   -858.271700
PC39  -6019.722577  29517.344192 -29374.239271     -1.299384
PC40 -17108.223568  20365.254612  32665.813038    -11.728607
PC41  27646.648564   -591.533103  -3692.630814   -455.665137
PC42  -2692.833872  15959.408353 -22689.877264   -916.483817
PC43  18047.335475  21180.544994  -1935.374271      0.342580
PC44 -10610.355295  12340.152926  22658.401834    166.597390
PC45 -17757.587452   2360.975546 -21411.465958    -43.283323
PC46   5238.771305 -26130.763171  -8206.919352    -24.149121
PE01 -15132.562092  -9202.470827 -23721.767974   -589.854088
PE02  15391.831015   8950.064649  23636.751273     12.669591
PE03  24618.554400  15523.532040  -5422.311605   -636.573370
PE04 -26683.496531  -2555.116214 -12559.544766    -28.841124
PE05   8008.537007  19656.984900 -20631.366764   -108.470271
PE07  13071.237111 -12234.779204  23572.240948    -12.532914
PE08  26685.959489   2628.644368  12536.860762    -13.911660
PE09 -13172.695638  12019.076341 -23626.911228   -788.075727
PE10 -13629.928199  12718.759866  22993.414770   -502.659644
PE11  -8847.800303  22645.550424  16872.908765    310.836863
PE12 -16018.332619   1694.681751  24838.587364   -372.097683
PE13   9232.230791 -21966.281866 -17554.706816    430.107026
PE14  25248.118600  16837.347336   1063.037212    103.856003
PE15  15965.861540  -1355.867526 -24875.183627    696.417470
PE18 -14651.895644 -19510.727142 -10063.647348   -548.794463
PE19 -23078.767598 -16765.491116   7920.735743  -3571.923724
PE21   2689.754307 -19992.788018 -21661.886721   -504.287381
PE24 -21047.617652  19878.944310   6226.944267  -1039.324570
PE25  -3039.796554  20112.231650  21510.813219   -596.452710
PE26  -3314.771942 -29401.911553    816.155394  -1861.389757
PE27  20376.808146 -20249.098362  -7099.885437   -479.542789
PE30  25831.519360  -7895.076816  12069.802918  -1132.978757
PE31 -25896.373312   8590.655570 -11490.677721   -512.430725
PE33 -13233.143919 -19909.026214  17470.943299   -454.818878
PE34  13324.795281  19744.721528 -17575.082447    -23.100759
PE36   2817.046396  29462.360903     54.811708   -485.425676
PG01 -13133.095278  10637.537672  20077.849301    228.716581
PG02  11159.229200 -15004.358308 -18315.995817   -629.294552
PG03 -23291.991870  12432.433849   2166.885532   -373.885478
PG04 -18507.174699   4129.107855 -18638.978775    -55.458180
PG05  21815.847329  -1852.301481 -15287.707532   -110.689598
PG06   5987.528671  24358.616615  -8527.244729    552.829642
PG07  -6894.187050  23048.783150 -10259.794467    264.205478
PG08 -24340.733578  -4674.914943  10006.065254   -101.945738
PG09  -8009.354576  13145.948410 -21724.442434   -242.246212
PG10   1380.691430 -17006.167159  20434.829740    -19.002472
PG11  12215.648068  14959.026017 -18238.310828    -71.141781
PG12  24257.450424 -10157.433102   3020.487732   -324.052566
PG13  22812.061153  12933.923463   4639.868975    453.626059
PG14  -4412.704386  18023.813832  18963.653972    -55.973854
PG15  24677.819663   1820.212096   9563.240429      1.711877
PG16 -20215.901825  -3444.728083 -17422.884642   -524.767932
PG17   5189.747681  18361.536788  18877.493484    690.989259
PG18   5441.614867 -24615.080660  -8126.161069    -85.625107
PG19  15698.432760  19065.928699   9887.359468    259.592213
PG20  14134.698095   7815.159260 -21026.265849    459.206902
PG21 -15485.594401    841.913129  22171.536879    153.181904
PG22 -17830.117178 -18353.780408   7879.522880    398.828568
PG23  12640.593850 -19062.298575  13378.335311      1.546842
PG24  14755.020643  -6385.831792  20741.148797    -14.987703
PG25  19571.084748 -16899.782509  -5668.965104    408.270879
PG26 -10477.703539 -11936.380519 -21407.036992    239.733670
PG27 -23357.655711 -13110.001614   -530.287802    135.564083
PG29  11206.926466 -10246.679025 -21841.163460   -578.386488
PG30   1115.567413  26374.977327   1118.706664   -534.065498
PG31  -7284.705665 -23199.657837 -10279.695092   -205.328572
PG32  -9385.742509 -18472.621350  16887.686964   -352.834735
PJ02 -30634.072462  28752.177984   8508.971516     -0.485576
PJ03      0.000000      0.000000      0.000000 999999.999999
PJ04 -32349.598246  22188.891146 -10177.172988    117.422642
PR01  15411.277489  -8150.769080  18622.888872     20.680075
PR02  -4653.401837 -11014.809891  22581.696485    -23.338206
PR03 -20865.348021  -7570.353635  12669.374422     70.301858
PR04 -25190.490157   -164.081109  -4042.717480    171.111392
PR05 -15882.799882   7336.228236 -18566.756838    105.649055
PR07  21306.841120   7265.568279 -11906.104263     47.369312
PR08  25128.813816   -127.107207   4329.558573    -68.852596
PR09  -4116.163209  20132.499823  15076.474448     96.714395
PR11  15776.755570  -8135.388931  18329.772176      9.466023
PR12  14884.263178 -20628.817473   1753.665182     24.087892
PR13   5640.109770 -20687.950669 -13830.386402    -30.618855
PR14  -8141.019597  -7801.236848 -22875.447487     24.174506
PR15 -16193.434710   8896.048315 -17574.470892     91.922092
PR16 -14800.405271  20652.953589  -2083.253173      9.531785
PR17 -14006.803762 -18729.532945  10153.564138    592.794509
PR18 -12824.410641  -4572.997519  21604.282920     60.132993
PR19  -6133.853016  10792.926423  22290.313558   -217.014219
PR20   6017.900137  23355.001074   8257.386398    -85.218745
PR21  14102.647699  17804.337067 -11628.431854   -362.800025
PR22  12759.703127   4016.777332 -21684.471757     65.177023
PR24  -6987.350653 -23344.761431  -7496.761542    137.307023
PR25  13130.018142  19609.195291  -9697.813892     50.687862
EOF
